ORBCOMM FM05            
1 25117U 97084F   24308.45437503  .00008986  00000+0  26263-2 0  9993
2 25117  45.0162  10.6595 0002905 219.1912 140.8729 14.44293299407956
ORBCOMM FM06            
1 25118U 97084G   24308.47347851  .00009450  00000+0  27512-2 0  9997
2 25118  45.0155  10.5940 0002734 239.9439 134.3974 14.44442189408872
ORBCOMM FM07            
1 25119U 97084H   24308.47423157  .00008902  00000+0  26006-2 0  9990
2 25119  45.0154  11.2561 0003053 205.0309 155.0394 14.44322454408861
ORBCOMM FM03            
1 25158U 98007B   24308.52610430  .00005793  00000+0  21191-2 0  9992
2 25158 107.9670  32.3728 0048705 282.0723  77.4961 14.33267003391697
ORBCOMM FM04            
1 25159U 98007C   24308.48157886  .00007013  00000+0  25465-2 0  9994
2 25159 107.9657  35.3428 0044327 279.6849  79.9285 14.33541755391864
ORBCOMM FM17            
1 25413U 98046A   24308.50503163  .00005716  00000+0  20731-2 0  9995
2 25413  44.9936 242.0011 0000826 175.2729 184.8126 14.34105073370762
ORBCOMM FM18            
1 25414U 98046B   24308.35034980  .00007340  00000+0  24883-2 0  9992
2 25414  44.9910 165.8753 0004100 215.6588 144.3986 14.37196640371748
ORBCOMM FM19            
1 25415U 98046C   24308.01711199  .00007420  00000+0  25241-2 0  9998
2 25415  44.9919 169.1070 0002958 203.0736 299.6457 14.37016911371651
