<?xml version="1.0" encoding="UTF-8"?>
<ndm xmlns:xsi="http://www.w3.org/2001/XMLSchema-instance" xsi:noNamespaceSchemaLocation="https://sanaregistry.org/r/ndmxml_unqualified/ndmxml-2.0.0-master-2.0.xsd">
<omm id="CCSDS_OMM_VERS" version="2.0">
<header><CREATION_DATE/><ORIGINATOR/></header><body><segment><metadata><OBJECT_NAME>ORBCOMM FM05</OBJECT_NAME><OBJECT_ID>1997-084F</OBJECT_ID><CENTER_NAME>EARTH</CENTER_NAME><REF_FRAME>TEME</REF_FRAME><TIME_SYSTEM>UTC</TIME_SYSTEM><MEAN_ELEMENT_THEORY>SGP4</MEAN_ELEMENT_THEORY></metadata><data><meanElements><EPOCH>2024-11-03T10:54:18.002592</EPOCH><MEAN_MOTION>14.44293299</MEAN_MOTION><ECCENTRICITY>.0002905</ECCENTRICITY><INCLINATION>45.0162</INCLINATION><RA_OF_ASC_NODE>10.6595</RA_OF_ASC_NODE><ARG_OF_PERICENTER>219.1912</ARG_OF_PERICENTER><MEAN_ANOMALY>140.8729</MEAN_ANOMALY></meanElements><tleParameters><EPHEMERIS_TYPE>0</EPHEMERIS_TYPE><CLASSIFICATION_TYPE>U</CLASSIFICATION_TYPE><NORAD_CAT_ID>25117</NORAD_CAT_ID><ELEMENT_SET_NO>999</ELEMENT_SET_NO><REV_AT_EPOCH>40795</REV_AT_EPOCH><BSTAR>.26263E-2</BSTAR><MEAN_MOTION_DOT>.8986E-4</MEAN_MOTION_DOT><MEAN_MOTION_DDOT>0</MEAN_MOTION_DDOT></tleParameters></data></segment></body></omm>
<omm id="CCSDS_OMM_VERS" version="2.0">
<header><CREATION_DATE/><ORIGINATOR/></header><body><segment><metadata><OBJECT_NAME>ORBCOMM FM06</OBJECT_NAME><OBJECT_ID>1997-084G</OBJECT_ID><CENTER_NAME>EARTH</CENTER_NAME><REF_FRAME>TEME</REF_FRAME><TIME_SYSTEM>UTC</TIME_SYSTEM><MEAN_ELEMENT_THEORY>SGP4</MEAN_ELEMENT_THEORY></metadata><data><meanElements><EPOCH>2024-11-03T11:21:48.543264</EPOCH><MEAN_MOTION>14.44442189</MEAN_MOTION><ECCENTRICITY>.0002734</ECCENTRICITY><INCLINATION>45.0155</INCLINATION><RA_OF_ASC_NODE>10.5940</RA_OF_ASC_NODE><ARG_OF_PERICENTER>239.9439</ARG_OF_PERICENTER><MEAN_ANOMALY>134.3974</MEAN_ANOMALY></meanElements><tleParameters><EPHEMERIS_TYPE>0</EPHEMERIS_TYPE><CLASSIFICATION_TYPE>U</CLASSIFICATION_TYPE><NORAD_CAT_ID>25118</NORAD_CAT_ID><ELEMENT_SET_NO>999</ELEMENT_SET_NO><REV_AT_EPOCH>40887</REV_AT_EPOCH><BSTAR>.27512E-2</BSTAR><MEAN_MOTION_DOT>.945E-4</MEAN_MOTION_DOT><MEAN_MOTION_DDOT>0</MEAN_MOTION_DDOT></tleParameters></data></segment></body></omm>
<omm id="CCSDS_OMM_VERS" version="2.0">
<header><CREATION_DATE/><ORIGINATOR/></header><body><segment><metadata><OBJECT_NAME>ORBCOMM FM07</OBJECT_NAME><OBJECT_ID>1997-084H</OBJECT_ID><CENTER_NAME>EARTH</CENTER_NAME><REF_FRAME>TEME</REF_FRAME><TIME_SYSTEM>UTC</TIME_SYSTEM><MEAN_ELEMENT_THEORY>SGP4</MEAN_ELEMENT_THEORY></metadata><data><meanElements><EPOCH>2024-11-03T11:22:53.607648</EPOCH><MEAN_MOTION>14.44322454</MEAN_MOTION><ECCENTRICITY>.0003053</ECCENTRICITY><INCLINATION>45.0154</INCLINATION><RA_OF_ASC_NODE>11.2561</RA_OF_ASC_NODE><ARG_OF_PERICENTER>205.0309</ARG_OF_PERICENTER><MEAN_ANOMALY>155.0394</MEAN_ANOMALY></meanElements><tleParameters><EPHEMERIS_TYPE>0</EPHEMERIS_TYPE><CLASSIFICATION_TYPE>U</CLASSIFICATION_TYPE><NORAD_CAT_ID>25119</NORAD_CAT_ID><ELEMENT_SET_NO>999</ELEMENT_SET_NO><REV_AT_EPOCH>40886</REV_AT_EPOCH><BSTAR>.26006E-2</BSTAR><MEAN_MOTION_DOT>.8902E-4</MEAN_MOTION_DOT><MEAN_MOTION_DDOT>0</MEAN_MOTION_DDOT></tleParameters></data></segment></body></omm>
<omm id="CCSDS_OMM_VERS" version="2.0">
<header><CREATION_DATE/><ORIGINATOR/></header><body><segment><metadata><OBJECT_NAME>ORBCOMM FM03</OBJECT_NAME><OBJECT_ID>1998-007B</OBJECT_ID><CENTER_NAME>EARTH</CENTER_NAME><REF_FRAME>TEME</REF_FRAME><TIME_SYSTEM>UTC</TIME_SYSTEM><MEAN_ELEMENT_THEORY>SGP4</MEAN_ELEMENT_THEORY></metadata><data><meanElements><EPOCH>2024-11-03T12:37:35.411520</EPOCH><MEAN_MOTION>14.33267003</MEAN_MOTION><ECCENTRICITY>.0048705</ECCENTRICITY><INCLINATION>107.9670</INCLINATION><RA_OF_ASC_NODE>32.3728</RA_OF_ASC_NODE><ARG_OF_PERICENTER>282.0723</ARG_OF_PERICENTER><MEAN_ANOMALY>77.4961</MEAN_ANOMALY></meanElements><tleParameters><EPHEMERIS_TYPE>0</EPHEMERIS_TYPE><CLASSIFICATION_TYPE>U</CLASSIFICATION_TYPE><NORAD_CAT_ID>25158</NORAD_CAT_ID><ELEMENT_SET_NO>999</ELEMENT_SET_NO><REV_AT_EPOCH>39169</REV_AT_EPOCH><BSTAR>.21191E-2</BSTAR><MEAN_MOTION_DOT>.5793E-4</MEAN_MOTION_DOT><MEAN_MOTION_DDOT>0</MEAN_MOTION_DDOT></tleParameters></data></segment></body></omm>
<omm id="CCSDS_OMM_VERS" version="2.0">
<header><CREATION_DATE/><ORIGINATOR/></header><body><segment><metadata><OBJECT_NAME>ORBCOMM FM04</OBJECT_NAME><OBJECT_ID>1998-007C</OBJECT_ID><CENTER_NAME>EARTH</CENTER_NAME><REF_FRAME>TEME</REF_FRAME><TIME_SYSTEM>UTC</TIME_SYSTEM><MEAN_ELEMENT_THEORY>SGP4</MEAN_ELEMENT_THEORY></metadata><data><meanElements><EPOCH>2024-11-03T11:33:28.413504</EPOCH><MEAN_MOTION>14.33541755</MEAN_MOTION><ECCENTRICITY>.0044327</ECCENTRICITY><INCLINATION>107.9657</INCLINATION><RA_OF_ASC_NODE>35.3428</RA_OF_ASC_NODE><ARG_OF_PERICENTER>279.6849</ARG_OF_PERICENTER><MEAN_ANOMALY>79.9285</MEAN_ANOMALY></meanElements><tleParameters><EPHEMERIS_TYPE>0</EPHEMERIS_TYPE><CLASSIFICATION_TYPE>U</CLASSIFICATION_TYPE><NORAD_CAT_ID>25159</NORAD_CAT_ID><ELEMENT_SET_NO>999</ELEMENT_SET_NO><REV_AT_EPOCH>39186</REV_AT_EPOCH><BSTAR>.25465E-2</BSTAR><MEAN_MOTION_DOT>.7013E-4</MEAN_MOTION_DOT><MEAN_MOTION_DDOT>0</MEAN_MOTION_DDOT></tleParameters></data></segment></body></omm>
<omm id="CCSDS_OMM_VERS" version="2.0">
<header><CREATION_DATE/><ORIGINATOR/></header><body><segment><metadata><OBJECT_NAME>ORBCOMM FM17</OBJECT_NAME><OBJECT_ID>1998-046A</OBJECT_ID><CENTER_NAME>EARTH</CENTER_NAME><REF_FRAME>TEME</REF_FRAME><TIME_SYSTEM>UTC</TIME_SYSTEM><MEAN_ELEMENT_THEORY>SGP4</MEAN_ELEMENT_THEORY></metadata><data><meanElements><EPOCH>2024-11-03T12:07:14.732832</EPOCH><MEAN_MOTION>14.34105073</MEAN_MOTION><ECCENTRICITY>.0000826</ECCENTRICITY><INCLINATION>44.9936</INCLINATION><RA_OF_ASC_NODE>242.0011</RA_OF_ASC_NODE><ARG_OF_PERICENTER>175.2729</ARG_OF_PERICENTER><MEAN_ANOMALY>184.8126</MEAN_ANOMALY></meanElements><tleParameters><EPHEMERIS_TYPE>0</EPHEMERIS_TYPE><CLASSIFICATION_TYPE>U</CLASSIFICATION_TYPE><NORAD_CAT_ID>25413</NORAD_CAT_ID><ELEMENT_SET_NO>999</ELEMENT_SET_NO><REV_AT_EPOCH>37076</REV_AT_EPOCH><BSTAR>.20731E-2</BSTAR><MEAN_MOTION_DOT>.5716E-4</MEAN_MOTION_DOT><MEAN_MOTION_DDOT>0</MEAN_MOTION_DDOT></tleParameters></data></segment></body></omm>
<omm id="CCSDS_OMM_VERS" version="2.0">
<header><CREATION_DATE/><ORIGINATOR/></header><body><segment><metadata><OBJECT_NAME>ORBCOMM FM18</OBJECT_NAME><OBJECT_ID>1998-046B</OBJECT_ID><CENTER_NAME>EARTH</CENTER_NAME><REF_FRAME>TEME</REF_FRAME><TIME_SYSTEM>UTC</TIME_SYSTEM><MEAN_ELEMENT_THEORY>SGP4</MEAN_ELEMENT_THEORY></metadata><data><meanElements><EPOCH>2024-11-03T08:24:30.222720</EPOCH><MEAN_MOTION>14.37196640</MEAN_MOTION><ECCENTRICITY>.00041</ECCENTRICITY><INCLINATION>44.9910</INCLINATION><RA_OF_ASC_NODE>165.8753</RA_OF_ASC_NODE><ARG_OF_PERICENTER>215.6588</ARG_OF_PERICENTER><MEAN_ANOMALY>144.3986</MEAN_ANOMALY></meanElements><tleParameters><EPHEMERIS_TYPE>0</EPHEMERIS_TYPE><CLASSIFICATION_TYPE>U</CLASSIFICATION_TYPE><NORAD_CAT_ID>25414</NORAD_CAT_ID><ELEMENT_SET_NO>999</ELEMENT_SET_NO><REV_AT_EPOCH>37174</REV_AT_EPOCH><BSTAR>.24883E-2</BSTAR><MEAN_MOTION_DOT>.734E-4</MEAN_MOTION_DOT><MEAN_MOTION_DDOT>0</MEAN_MOTION_DDOT></tleParameters></data></segment></body></omm>
<omm id="CCSDS_OMM_VERS" version="2.0">
<header><CREATION_DATE/><ORIGINATOR/></header><body><segment><metadata><OBJECT_NAME>ORBCOMM FM19</OBJECT_NAME><OBJECT_ID>1998-046C</OBJECT_ID><CENTER_NAME>EARTH</CENTER_NAME><REF_FRAME>TEME</REF_FRAME><TIME_SYSTEM>UTC</TIME_SYSTEM><MEAN_ELEMENT_THEORY>SGP4</MEAN_ELEMENT_THEORY></metadata><data><meanElements><EPOCH>2024-11-03T00:24:38.475936</EPOCH><MEAN_MOTION>14.37016911</MEAN_MOTION><ECCENTRICITY>.0002958</ECCENTRICITY><INCLINATION>44.9919</INCLINATION><RA_OF_ASC_NODE>169.1070</RA_OF_ASC_NODE><ARG_OF_PERICENTER>203.0736</ARG_OF_PERICENTER><MEAN_ANOMALY>299.6457</MEAN_ANOMALY></meanElements><tleParameters><EPHEMERIS_TYPE>0</EPHEMERIS_TYPE><CLASSIFICATION_TYPE>U</CLASSIFICATION_TYPE><NORAD_CAT_ID>25415</NORAD_CAT_ID><ELEMENT_SET_NO>999</ELEMENT_SET_NO><REV_AT_EPOCH>37165</REV_AT_EPOCH><BSTAR>.25241E-2</BSTAR><MEAN_MOTION_DOT>.742E-4</MEAN_MOTION_DOT><MEAN_MOTION_DDOT>0</MEAN_MOTION_DDOT></tleParameters></data></segment></body></omm>

</ndm>
